IRIDIUM 26              
1 24903U 97043A   25191.51085667  .00000225  00000+0  69054-4 0  9993
2 24903  86.3955 100.8262 0002275  79.7461 280.3993 14.37159412460095
IRIDIUM 22              
1 24907U 97043E   25191.45996593  .00000222  00000+0  69552-4 0  9999
2 24907  86.3962 104.4075 0002137  83.6467 276.4973 14.35970299460115
DUMMY MASS 1            
1 24925U 97048A   25191.56647055  .00000272  00000+0  27222-4 0  9995
2 24925  86.3364 124.5231 0008915  70.6839 289.5349 14.87001001508609
DUMMY MASS 2            
1 24926U 97048B   25191.53251443  .00000278  00000+0  27993-4 0  9996
2 24926  86.3366 126.1501 0009829  79.1023 281.1307 14.86752927508379
IRIDIUM 29              
1 24944U 97051A   25191.54428260  .00000259  00000+0  81760-4 0  9995
2 24944  86.3983 134.1047 0002180  90.0970 270.0477 14.36482734456620
IRIDIUM 33              
1 24946U 97051C   25191.27279734  .00000214  00000+0  68474-4 0  9995
2 24946  86.3899 133.4807 0008437  18.7225 341.4280 14.34904066456052
IRIDIUM 28              
1 24948U 97051E   25191.57278387  .00000221  00000+0  67406-4 0  9995
2 24948  86.3986 131.5960 0002443  74.2228 285.9239 14.37398860457207
IRIDIUM 36              
1 24967U 97056C   25191.46287898  .00000261  00000+0  80309-4 0  9997
2 24967  86.3999 163.2264 0002099  82.7564 277.3872 14.37623865455566
